GLOBALSTAR M069         
1 31573U 07020C   23321.91316544 -.00000105  00000+0 -69294-5 0  9994
2 31573  51.9926 139.3237 0001339  98.1424  78.6473 12.62260889761648
GLOBALSTAR M072         
1 31574U 07020D   23321.96742458 -.00000112  00000+0 -48573-4 0  9991
2 31574  52.0086 234.9090 0001157  60.9425  20.0526 12.62268480759926
GLOBALSTAR M071         
1 31576U 07020F   23321.93402432 -.00000110  00000+0 -34833-4 0  9997
2 31576  52.0040 144.2617 0001025  85.6144  64.4811 12.62272910422831
GLOBALSTAR M063 [+]     
1 26081U 00008A   23321.91156760 -.00000073  00000+0  14101-3 0  9991
2 26081  51.9934 191.8780 0003675 298.6105  73.5171 11.86147963 89070
GLOBALSTAR M062 [-]     
1 26082U 00008B   23321.83386662 -.00000044  00000+0  38562-3 0  9994
2 26082  51.9869 353.5401 0006693 320.8899 210.8760 12.43420883424797
GLOBALSTAR M060 [-]     
1 26083U 00008C   23321.51755873  .00000118  00000+0  20825-2 0  9997
2 26083  52.0017 232.7552 0004377  38.0535 133.3865 12.17620499 81994
